ELYSIUM STAR 2 & LFF    
1 43760U 18099C   24238.76040385  .00082164  00000+0  24150-2 0  9993
2 43760  97.5086 307.1059 0003397  28.6974 331.4455 15.34788352313873
